STARLINK-31346          
1 58943U 24027N   26068.97587990 -.00002720  00000+0 -79707-4 0  9996
2 58943  53.1615 306.0675 0001273 116.8249 243.2882 15.30208288117402
2024-092F               
1 59778U 24092F   26068.91303411  .00025723  00000+0  79143-3 0  9992
2 59778  97.6418 198.4543 0008646 142.6506 217.5339 15.33614440100535
